OBJECT_NAME,OBJECT_ID,EPOCH,MEAN_MOTION,ECCENTRICITY,INCLINATION,RA_OF_ASC_NODE,ARG_OF_PERICENTER,MEAN_ANOMALY,EPHEMERIS_TYPE,CLASSIFICATION_TYPE,NORAD_CAT_ID,ELEMENT_SET_NO,REV_AT_EPOCH,BSTAR,MEAN_MOTION_DOT,MEAN_MOTION_DDOT
MONITOR-3 (RS58S),2023-091Q,2026-06-24T06:30:45.482400,15.27964376,.00129094,97.5084,238.7696,78.9020,281.3670,0,U,57180,999,16537,.36018157E-3,.9778E-4,0
MONITOR-4 (RS57S),2023-091S,2026-06-24T06:00:01.921536,15.28050072,.00128962,97.5078,238.7196,79.2850,280.9840,0,U,57182,999,16537,.36991418E-3,.10071E-3,0
MONITOR-2 (RS39S),2023-091U,2026-06-24T05:30:56.676096,15.18966612,.00127693,97.5072,233.4672,89.8428,270.4270,0,U,57184,999,16502,.22210911E-3,.4583E-4,0
SVYATOBOR 1 (RS60S),2023-091X,2026-06-24T06:27:40.601088,15.26718812,.00106647,97.5090,239.1255,73.1213,287.1194,0,U,57187,999,16539,.32749477E-3,.8545E-4,0
HORS 1,2023-091Y,2026-06-24T06:06:08.223840,15.26827498,.0010105,97.5067,238.8719,73.2943,286.9404,0,U,57188,999,16539,.33668397E-3,.8815E-4,0
VIZARD-METEO (RS38S),2023-091Z,2026-06-24T05:57:07.573248,15.36219101,.00078006,97.5092,244.8751,56.2323,303.9663,0,U,57189,999,16577,.43036255E-3,.15134E-3,0
SITRO-AIS 6 (CHIRKIN),2023-091AC,2026-06-24T06:16:52.891392,15.26050114,.00129779,97.5068,238.3100,84.6547,275.6172,0,U,57192,999,16536,.37008213E-3,.9481E-4,0
SITRO-AIS 8 (ANOKHIN),2023-091AD,2026-06-24T06:30:13.321728,15.32301729,.00115505,97.5057,240.8554,78.0658,282.1878,0,U,57193,999,16553,.41960599E-3,.13041E-3,0
SITRO-AIS 7 (FARTUSHNIY),2023-091AE,2026-06-24T06:23:30.338304,15.25735113,.00128552,97.5066,238.1360,85.5975,274.6731,0,U,57194,999,16535,.3590028E-3,.9107E-4,0
AVION KALUGA 650,2023-091AF,2026-06-24T06:29:04.849728,15.20416410,.00118944,97.5090,234.8179,88.0686,272.1911,0,U,57195,999,16510,.22363354E-3,.4814E-4,0
HORS 2,2023-091AG,2026-06-24T06:48:43.495200,15.32043943,.00089231,97.5090,242.4105,66.5213,293.6965,0,U,57196,999,16561,.37749409E-3,.11618E-3,0
A-SEANSAT-PG1,2023-091AH,2026-06-24T05:41:54.278592,15.37170292,.00078041,97.5081,244.9697,63.8035,296.4011,0,U,57197,999,16579,.43488867E-3,.15772E-3,0
SITRO-AIS 10 (BURDAEV),2023-091AK,2026-06-24T06:32:31.833024,15.38845989,.0006996,97.5082,245.9849,58.7181,301.4748,0,U,57199,999,16585,.47740345E-3,.18293E-3,0
SITRO-AIS 9 (SHCHUKIN),2023-091AM,2026-06-24T05:40:09.471936,15.38345353,.00072466,97.5079,245.6720,59.0713,301.1243,0,U,57201,999,16583,.45754036E-3,.17243E-3,0
UTMN 2 (RS27S),2023-091AP,2026-06-24T05:52:49.226016,15.32200560,.00088695,97.5088,242.5640,62.5660,297.6483,0,U,57203,999,16562,.37559541E-3,.11616E-3,0
SITRO-AIS 12 (SMIRENNIY),2023-091AQ,2026-06-24T06:58:22.074528,15.38641463,.00067328,97.5093,246.1992,53.7958,306.3908,0,U,57204,999,16586,.46412252E-3,.17661E-3,0
SITRO-AIS 11 (SHEFFER),2023-091AU,2026-06-24T05:41:13.454592,15.39068342,.00066237,97.5090,246.3954,53.6673,306.5183,0,U,57208,999,16587,.45172392E-3,.17427E-3,0
H2SAT (HEINRICH HERTZ),2023-093A,2026-06-24T04:05:40.988256,1.00269620,.00007919,0.0458,109.0878,15.8237,209.5371,0,U,57213,999,1098,0,.9E-7,0
KUZGTU 1 (RS47S),2023-091AV,2026-06-24T05:29:13.281216,15.29995720,.00120745,97.5065,239.7805,76.3028,283.9556,0,U,57217,999,16545,.35425922E-3,.10234E-3,0
QIANKUN-1,2023-103B,2026-06-24T03:24:20.703456,16.07644797,.00336534,96.1516,219.4975,146.3074,214.0360,0,U,57422,999,16841,.35190923E-4,.29952E-3,.2050203E-5
FENGYUN 3F,2023-111A,2026-06-24T07:15:45.131616,14.19940126,.00015592,98.6834,245.1788,87.9729,272.1626,0,U,57490,999,14987,.3336434E-4,.27E-6,0
METEOR 2-1 DEB,1975-064F,2026-06-23T17:38:48.353568,14.29487340,.00298657,81.2563,352.6865,86.8901,273.5698,0,U,57492,999,40392,.77323238E-3,.1996E-4,0
HJ-2F,2023-116A,2026-06-24T06:51:07.931808,15.22407408,.00091351,97.3844,180.3802,30.3744,329.8020,0,U,57519,999,15983,.30709807E-3,.7035E-4,0
XRISM,2023-137A,2026-06-23T18:57:39.807648,15.12515318,.00078456,31.0028,316.8302,30.1498,329.9592,0,U,57800,999,15386,.20168132E-3,.37E-4,0
METEOR-M2 4,2024-039A,2026-06-24T06:54:41.287968,14.22430160,.00076624,98.7013,134.4969,141.7497,218.4226,0,U,59051,999,12027,.18333212E-4,-.3E-7,0
GRBBETA,2024-128C,2026-06-24T04:31:37.733952,15.06673239,.00397422,61.9881,191.7006,136.1475,224.2785,0,U,60237,999,10732,.18315735E-3,.2558E-4,0
TRANSPORTER-11 OBJECT A,2024-149A,2026-06-24T04:52:43.551840,15.33004450,.00035124,97.3729,255.1113,170.5667,189.5642,0,U,60468,999,10313,.23372887E-3,.7374E-4,0
WARATAH SEED-1,2024-149B,2026-06-24T05:05:14.102592,15.36096383,.00021489,97.3689,255.7935,160.5036,199.6291,0,U,60469,999,10319,.33150089E-3,.1158E-3,0
PHISAT 2,2024-149C,2026-06-23T04:34:32.295648,15.31130230,.00016883,97.3754,253.3737,161.8232,198.3070,0,U,60470,999,10291,.18080953E-3,.536E-4,0
LEMUR-2-TOMATOKECHUP,2024-149D,2026-06-24T04:59:19.219776,15.36157849,.00020577,97.3798,257.2727,162.3285,197.8031,0,U,60471,999,10324,.27176705E-3,.9495E-4,0
