
A-SEANSAT-PG1
1 57197U 23091AH  26175.23743378  .00015772  00000+0  43489-3 0  9994
2 57197  97.5081 244.9697 0007804  63.8035 296.4011 15.37170292165794

AVION KALUGA 650
1 57195U 23091AF  26175.27019502  .00004814  00000+0  22363-3 0  9994
2 57195  97.5090 234.8179 0011894  88.0686 272.1911 15.20416410165102

FENGYUN 3F
1 57490U 23111A   26175.30260569  .00000027  00000+0  33364-4 0  9996
2 57490  98.6834 245.1788 0001559  87.9729 272.1626 14.19940126149874

GRBBETA
1 60237U 24128C   26175.18863118  .00002558  00000+0  18316-3 0  9993
2 60237  61.9881 191.7006 0039742 136.1475 224.2785 15.06673239107324

H2SAT (HEINRICH HERTZ)
1 57213U 23093A   26175.17061329  .00000009  00000+0  00000+0 0  9992
2 57213   0.0458 109.0878 0000791  15.8237 209.5371  1.00269620 10984

HJ-2F
1 57519U 23116A   26175.28550847  .00007035  00000+0  30710-3 0  9998
2 57519  97.3844 180.3802 0009135  30.3744 329.8020 15.22407408159838

HORS 1
1 57188U 23091Y   26175.25426185  .00008815  00000+0  33668-3 0  9998
2 57188  97.5067 238.8719 0010105  73.2943 286.9404 15.26827498165397

HORS 2
1 57196U 23091AG  26175.28383675  .00011618  00000+0  37749-3 0  9995
2 57196  97.5090 242.4105 0008923  66.5213 293.6965 15.32043943165616

KUZGTU 1 (RS47S)
1 57217U 23091AV  26175.22862594  .00010234  00000+0  35426-3 0  9998
2 57217  97.5065 239.7805 0012074  76.3028 283.9556 15.29995720165458

LEMUR-2-TOMATOKECHUP
1 60471U 24149D   26175.20786134  .00009495  00000+0  27177-3 0  9993
2 60471  97.3798 257.2727 0002057 162.3285 197.8031 15.36157849103244

METEOR 2-1 DEB
1 57492U 75064F   26174.73528187  .00001996  00000+0  77323-3 0  9999
2 57492  81.2563 352.6865 0029865  86.8901 273.5698 14.29487340403921

METEOR-M2 4
1 59051U 24039A   26175.28797787 -.00000003  00000+0  18333-4 0  9999
2 59051  98.7013 134.4969 0007662 141.7497 218.4226 14.22430160120270

MONITOR-2 (RS39S)
1 57184U 23091U   26175.22982264  .00004583  00000+0  22211-3 0  9996
2 57184  97.5072 233.4672 0012769  89.8428 270.4270 15.18966612165029

MONITOR-3 (RS58S)
1 57180U 23091Q   26175.27135975  .00009778  00000+0  36018-3 0  9997
2 57180  97.5084 238.7696 0012909  78.9020 281.3670 15.27964376165373

MONITOR-4 (RS57S)
1 57182U 23091S   26175.25002224  .00010071  00000+0  36991-3 0  9995
2 57182  97.5078 238.7196 0012896  79.2850 280.9840 15.28050072165377

PHISAT 2
1 60470U 24149C   26174.19065157  .00005360  00000+0  18081-3 0  9995
2 60470  97.3754 253.3737 0001688 161.8232 198.3070 15.31130230102910

QIANKUN-1
1 57422U 23103B   26175.14190629  .00029952  20502-5  35191-4 0  9996
2 57422  96.1516 219.4975 0033653 146.3074 214.0360 16.07644797168419

SITRO-AIS 10 (BURDAEV)
1 57199U 23091AK  26175.27259066  .00018293  00000+0  47740-3 0  9991
2 57199  97.5082 245.9849 0006996  58.7181 301.4748 15.38845989165857

SITRO-AIS 11 (SHEFFER)
1 57208U 23091AU  26175.23696128  .00017427  00000+0  45172-3 0  9997
2 57208  97.5090 246.3954 0006623  53.6673 306.5183 15.39068342165878

SITRO-AIS 12 (SMIRENNIY)
1 57204U 23091AQ  26175.29053327  .00017661  00000+0  46412-3 0  9995
2 57204  97.5093 246.1992 0006732  53.7958 306.3908 15.38641463165867

SITRO-AIS 6 (CHIRKIN)
1 57192U 23091AC  26175.26172328  .00009481  00000+0  37008-3 0  9993
2 57192  97.5068 238.3100 0012977  84.6547 275.6172 15.26050114165364

SITRO-AIS 7 (FARTUSHNIY)
1 57194U 23091AE  26175.26632336  .00009107  00000+0  35900-3 0  9999
2 57194  97.5066 238.1360 0012855  85.5975 274.6731 15.25735113165357

SITRO-AIS 8 (ANOKHIN)
1 57193U 23091AD  26175.27098752  .00013041  00000+0  41961-3 0  9993
2 57193  97.5057 240.8554 0011550  78.0658 282.1878 15.32301729165533

SITRO-AIS 9 (SHCHUKIN)
1 57201U 23091AM  26175.23622074  .00017243  00000+0  45754-3 0  9991
2 57201  97.5079 245.6720 0007246  59.0713 301.1243 15.38345353165831

SVYATOBOR 1 (RS60S)
1 57187U 23091X   26175.26921992  .00008545  00000+0  32749-3 0  9993
2 57187  97.5090 239.1255 0010664  73.1213 287.1194 15.26718812165398

TRANSPORTER-11 OBJECT A
1 60468U 24149A   26175.20328185  .00007374  00000+0  23373-3 0  9995
2 60468  97.3729 255.1113 0003512 170.5667 189.5642 15.33004450103132

UTMN 2 (RS27S)
1 57203U 23091AP  26175.24501419  .00011616  00000+0  37560-3 0  9997
2 57203  97.5088 242.5640 0008869  62.5660 297.6483 15.32200560165628

VIZARD-METEO (RS38S)
1 57189U 23091Z   26175.24800432  .00015134  00000+0  43036-3 0  9991
2 57189  97.5092 244.8751 0007800  56.2323 303.9663 15.36219101165776

WARATAH SEED-1
1 60469U 24149B   26175.21196878  .00011580  00000+0  33150-3 0  9997
2 60469  97.3689 255.7935 0002148 160.5036 199.6291 15.36096383103196

XRISM
1 57800U 23137A   26174.79004407  .00003700  00000+0  20168-3 0  9996
2 57800  31.0028 316.8302 0007845  30.1498 329.9592 15.12515318153862
